;MillMage Pro 0.8.02
;Custom GCode device profile, absolute coords
;Bounds: X2.825 Y5.825 to X71.076 Y36.175
;Project Units: Metric
;Safe Retract = 10
;Stock Thickness: 10
;Z Zero: Top
;Workpiece origin is at the Bottom Left
G00 G17 G40 G21;Restore metric mode
G54

G90;Restore absolute mode
G0 Z10
G90;Restore absolute mode
;Profile @ 1900 mm/min, 18000 RPMs
M5
M6 T1
M3 S18000
G0 Z10
G0 X30.223Y5.833Z10
G0 Z1
G1 Z0F599.9
G1 X30Y5.825Z-0.092F1500
G1 X28.388Z-0.76
G1 X30Z-1.428
G1 X30.223Y5.833Z-1.52
G1 X30Y5.825F1900
G1 X6
G1 X5.691Y5.84
G1 X5.47Y5.87
G1 X5.252Y5.915
G1 X5.038Y5.975
G1 X4.828Y6.049
G1 X4.624Y6.139
G1 X4.427Y6.242
G1 X4.237Y6.359
G1 X4.057Y6.489
G1 X3.885Y6.632
G1 X3.725Y6.786
G1 X3.575Y6.951
G1 X3.437Y7.126
G1 X3.312Y7.31
G1 X3.2Y7.503
G1 X3.102Y7.703
G1 X3.019Y7.909
G1 X2.949Y8.121
G1 X2.895Y8.337
G1 X2.856Y8.556
G1 X2.833Y8.777
G1 X2.825Y9
G1 Y33
G1 X2.84Y33.309
G1 X2.87Y33.53
G1 X2.915Y33.748
G1 X2.975Y33.962
G1 X3.049Y34.172
G1 X3.139Y34.376
G1 X3.242Y34.573
G1 X3.359Y34.763
G1 X3.489Y34.943
G1 X3.632Y35.115
G1 X3.786Y35.275
G1 X3.951Y35.425
G1 X4.126Y35.563
G1 X4.31Y35.688
G1 X4.503Y35.8
G1 X4.703Y35.898
G1 X4.909Y35.981
G1 X5.121Y36.051
G1 X5.337Y36.105
G1 X5.556Y36.144
G1 X5.777Y36.167
G1 X6Y36.175
G1 X30
G1 X30.309Y36.16
G1 X30.53Y36.13
G1 X30.748Y36.085
G1 X30.962Y36.025
G1 X31.172Y35.951
G1 X31.376Y35.861
G1 X31.573Y35.758
G1 X31.763Y35.641
G1 X31.943Y35.511
G1 X32.115Y35.368
G1 X32.275Y35.214
G1 X32.425Y35.049
G1 X32.563Y34.874
G1 X32.688Y34.69
G1 X32.8Y34.497
G1 X32.898Y34.297
G1 X32.981Y34.091
G1 X33.051Y33.879
G1 X33.105Y33.663
G1 X33.144Y33.444
G1 X33.167Y33.223
G1 X33.175Y33
G1 Y9
G1 X33.16Y8.691
G1 X33.13Y8.47
G1 X33.085Y8.252
G1 X33.025Y8.038
G1 X32.951Y7.828
G1 X32.861Y7.624
G1 X32.758Y7.427
G1 X32.641Y7.237
G1 X32.511Y7.057
G1 X32.368Y6.885
G1 X32.214Y6.725
G1 X32.049Y6.575
G1 X31.874Y6.437
G1 X31.69Y6.312
G1 X31.497Y6.2
G1 X31.297Y6.102
G1 X31.091Y6.019
G1 X30.879Y5.949
G1 X30.663Y5.895
G1 X30.444Y5.856
G1 X30.223Y5.833
G1 X30Y5.825Z-1.612F1500
G1 X28.388Z-2.28
G1 X30Z-2.948
G1 X30.223Y5.833Z-3.04
G1 X30Y5.825F1900
G1 X6
G1 X5.691Y5.84
G1 X5.47Y5.87
G1 X5.252Y5.915
G1 X5.038Y5.975
G1 X4.828Y6.049
G1 X4.624Y6.139
G1 X4.427Y6.242
G1 X4.237Y6.359
G1 X4.057Y6.489
G1 X3.885Y6.632
G1 X3.725Y6.786
G1 X3.575Y6.951
G1 X3.437Y7.126
G1 X3.312Y7.31
G1 X3.2Y7.503
G1 X3.102Y7.703
G1 X3.019Y7.909
G1 X2.949Y8.121
G1 X2.895Y8.337
G1 X2.856Y8.556
G1 X2.833Y8.777
G1 X2.825Y9
G1 Y33
G1 X2.84Y33.309
G1 X2.87Y33.53
G1 X2.915Y33.748
G1 X2.975Y33.962
G1 X3.049Y34.172
G1 X3.139Y34.376
G1 X3.242Y34.573
G1 X3.359Y34.763
G1 X3.489Y34.943
G1 X3.632Y35.115
G1 X3.786Y35.275
G1 X3.951Y35.425
G1 X4.126Y35.563
G1 X4.31Y35.688
G1 X4.503Y35.8
G1 X4.703Y35.898
G1 X4.909Y35.981
G1 X5.121Y36.051
G1 X5.337Y36.105
G1 X5.556Y36.144
G1 X5.777Y36.167
G1 X6Y36.175
G1 X30
G1 X30.309Y36.16
G1 X30.53Y36.13
G1 X30.748Y36.085
G1 X30.962Y36.025
G1 X31.172Y35.951
G1 X31.376Y35.861
G1 X31.573Y35.758
G1 X31.763Y35.641
G1 X31.943Y35.511
G1 X32.115Y35.368
G1 X32.275Y35.214
G1 X32.425Y35.049
G1 X32.563Y34.874
G1 X32.688Y34.69
G1 X32.8Y34.497
G1 X32.898Y34.297
G1 X32.981Y34.091
G1 X33.051Y33.879
G1 X33.105Y33.663
G1 X33.144Y33.444
G1 X33.167Y33.223
G1 X33.175Y33
G1 Y9
G1 X33.16Y8.691
G1 X33.13Y8.47
G1 X33.085Y8.252
G1 X33.025Y8.038
G1 X32.951Y7.828
G1 X32.861Y7.624
G1 X32.758Y7.427
G1 X32.641Y7.237
G1 X32.511Y7.057
G1 X32.368Y6.885
G1 X32.214Y6.725
G1 X32.049Y6.575
G1 X31.874Y6.437
G1 X31.69Y6.312
G1 X31.497Y6.2
G1 X31.297Y6.102
G1 X31.091Y6.019
G1 X30.879Y5.949
G1 X30.663Y5.895
G1 X30.444Y5.856
G1 X30.223Y5.833
G1 X30Y5.825Z-3.132F1500
G1 X28.388Z-3.8
G1 X30Z-4.468
G1 X30.223Y5.833Z-4.56
G1 X30Y5.825F1900
G1 X6
G1 X5.691Y5.84
G1 X5.47Y5.87
G1 X5.252Y5.915
G1 X5.038Y5.975
G1 X4.828Y6.049
G1 X4.624Y6.139
G1 X4.427Y6.242
G1 X4.237Y6.359
G1 X4.057Y6.489
G1 X3.885Y6.632
G1 X3.725Y6.786
G1 X3.575Y6.951
G1 X3.437Y7.126
G1 X3.312Y7.31
G1 X3.2Y7.503
G1 X3.102Y7.703
G1 X3.019Y7.909
G1 X2.949Y8.121
G1 X2.895Y8.337
G1 X2.856Y8.556
G1 X2.833Y8.777
G1 X2.825Y9
G1 Y33
G1 X2.84Y33.309
G1 X2.87Y33.53
G1 X2.915Y33.748
G1 X2.975Y33.962
G1 X3.049Y34.172
G1 X3.139Y34.376
G1 X3.242Y34.573
G1 X3.359Y34.763
G1 X3.489Y34.943
G1 X3.632Y35.115
G1 X3.786Y35.275
G1 X3.951Y35.425
G1 X4.126Y35.563
G1 X4.31Y35.688
G1 X4.503Y35.8
G1 X4.703Y35.898
G1 X4.909Y35.981
G1 X5.121Y36.051
G1 X5.337Y36.105
G1 X5.556Y36.144
G1 X5.777Y36.167
G1 X6Y36.175
G1 X30
G1 X30.309Y36.16
G1 X30.53Y36.13
G1 X30.748Y36.085
G1 X30.962Y36.025
G1 X31.172Y35.951
G1 X31.376Y35.861
G1 X31.573Y35.758
G1 X31.763Y35.641
G1 X31.943Y35.511
G1 X32.115Y35.368
G1 X32.275Y35.214
G1 X32.425Y35.049
G1 X32.563Y34.874
G1 X32.688Y34.69
G1 X32.8Y34.497
G1 X32.898Y34.297
G1 X32.981Y34.091
G1 X33.051Y33.879
G1 X33.105Y33.663
G1 X33.144Y33.444
G1 X33.167Y33.223
G1 X33.175Y33
G1 Y9
G1 X33.16Y8.691
G1 X33.13Y8.47
G1 X33.085Y8.252
G1 X33.025Y8.038
G1 X32.951Y7.828
G1 X32.861Y7.624
G1 X32.758Y7.427
G1 X32.641Y7.237
G1 X32.511Y7.057
G1 X32.368Y6.885
G1 X32.214Y6.725
G1 X32.049Y6.575
G1 X31.874Y6.437
G1 X31.69Y6.312
G1 X31.497Y6.2
G1 X31.297Y6.102
G1 X31.091Y6.019
G1 X30.879Y5.949
G1 X30.663Y5.895
G1 X30.444Y5.856
G1 X30.223Y5.833
G1 X30Y5.825Z-4.652F1500
G1 X29.692Z-4.78
G1 X30Z-4.908
G1 X30.223Y5.833Z-5
G1 X30Y5.825F1900
G1 X6
G1 X5.691Y5.84
G1 X5.47Y5.87
G1 X5.252Y5.915
G1 X5.038Y5.975
G1 X4.828Y6.049
G1 X4.624Y6.139
G1 X4.427Y6.242
G1 X4.237Y6.359
G1 X4.057Y6.489
G1 X3.885Y6.632
G1 X3.725Y6.786
G1 X3.575Y6.951
G1 X3.437Y7.126
G1 X3.312Y7.31
G1 X3.2Y7.503
G1 X3.102Y7.703
G1 X3.019Y7.909
G1 X2.949Y8.121
G1 X2.895Y8.337
G1 X2.856Y8.556
G1 X2.833Y8.777
G1 X2.825Y9
G1 Y33
G1 X2.84Y33.309
G1 X2.87Y33.53
G1 X2.915Y33.748
G1 X2.975Y33.962
G1 X3.049Y34.172
G1 X3.139Y34.376
G1 X3.242Y34.573
G1 X3.359Y34.763
G1 X3.489Y34.943
G1 X3.632Y35.115
G1 X3.786Y35.275
G1 X3.951Y35.425
G1 X4.126Y35.563
G1 X4.31Y35.688
G1 X4.503Y35.8
G1 X4.703Y35.898
G1 X4.909Y35.981
G1 X5.121Y36.051
G1 X5.337Y36.105
G1 X5.556Y36.144
G1 X5.777Y36.167
G1 X6Y36.175
G1 X30
G1 X30.309Y36.16
G1 X30.53Y36.13
G1 X30.748Y36.085
G1 X30.962Y36.025
G1 X31.172Y35.951
G1 X31.376Y35.861
G1 X31.573Y35.758
G1 X31.763Y35.641
G1 X31.943Y35.511
G1 X32.115Y35.368
G1 X32.275Y35.214
G1 X32.425Y35.049
G1 X32.563Y34.874
G1 X32.688Y34.69
G1 X32.8Y34.497
G1 X32.898Y34.297
G1 X32.981Y34.091
G1 X33.051Y33.879
G1 X33.105Y33.663
G1 X33.144Y33.444
G1 X33.167Y33.223
G1 X33.175Y33
G1 Y9
G1 X33.16Y8.691
G1 X33.13Y8.47
G1 X33.085Y8.252
G1 X33.025Y8.038
G1 X32.951Y7.828
G1 X32.861Y7.624
G1 X32.758Y7.427
G1 X32.641Y7.237
G1 X32.511Y7.057
G1 X32.368Y6.885
G1 X32.214Y6.725
G1 X32.049Y6.575
G1 X31.874Y6.437
G1 X31.69Y6.312
G1 X31.497Y6.2
G1 X31.297Y6.102
G1 X31.091Y6.019
G1 X30.879Y5.949
G1 X30.663Y5.895
G1 X30.444Y5.856
G1 X30.223Y5.833
G0 Z10
M5
G90;Restore absolute mode
M2
